{"type": "FeatureCollection", "features": [ {"type": "Feature", "properties": {"norad_id": 32430, "name": "FENGYUN 1C DEB", "group": "fengyun-1c-debris", "lat": 38.812882916109956, "lon": -160.578527873774, "alt_km": 1152.7393861143437, "timestamp": "2025-12-13T16:48:32.996591+00:00", "meta": {"OBJECT_NAME": "FENGYUN 1C DEB", "OBJECT_ID": "1999-025DAS", "EPOCH": "2025-12-12T19:03:24.452928", "MEAN_MOTION": 13.70124487, "ECCENTRICITY": 0.03690041, "INCLINATION": 98.698, "RA_OF_ASC_NODE": 11.5267, "ARG_OF_PERICENTER": 269.8105, "MEAN_ANOMALY": 86.0766, "EPHEMERIS_TYPE": 0, "CLASSIFICATION_TYPE": "U", "NORAD_CAT_ID": 32430, "ELEMENT_SET_NO": 999, "REV_AT_EPOCH": 91204, "BSTAR": 0.0022418829, "MEAN_MOTION_DOT": 3.151e-05, "MEAN_MOTION_DDOT": 0}, "tle": {"line1": "1 32430U 99025DAS 25346.79403302  .00003151  00000+0  22419-2 0  9994", "line2": "2 32430  98.6980  11.5267 0369004 269.8105  86.0766 13.70124487912045"}}, "geometry": {"type": "Point", "coordinates": [-160.578527873774, 38.812882916109956]}}, {"type": "Feature", "properties": {"norad_id": 32432, "name": "FENGYUN 1C DEB", "group": "fengyun-1c-debris", "lat": -80.55751909244663, "lon": 144.08858324247555, "alt_km": 626.8841124972369, "timestamp": "2025-12-13T16:48:32.996601+00:00", "meta": {"OBJECT_NAME": "FENGYUN 1C DEB", "OBJECT_ID": "1999-025DAU", "EPOCH": "2025-12-11T09:01:10.543008", "MEAN_MOTION": 14.52447324, "ECCENTRICITY": 0.01726948, "INCLINATION": 98.1718, "RA_OF_ASC_NODE": 21.5937, "ARG_OF_PERICENTER": 309.9521, "MEAN_ANOMALY": 48.6612, "EPHEMERIS_TYPE": 0, "CLASSIFICATION_TYPE": "U", "NORAD_CAT_ID": 32432, "ELEMENT_SET_NO": 999, "REV_AT_EPOCH": 70675, "BSTAR": 0.0029978427, "MEAN_MOTION_DOT": 0.00014846, "MEAN_MOTION_DDOT": 0}, "tle": {"line1": "1 32432U 99025DAU 25345.37581647  .00014846  00000+0  29978-2 0  9998", "line2": "2 32432  98.1718  21.5937 0172694 309.9521  48.6612 14.52447324706753"}}, "geometry": {"type": "Point", "coordinates": [144.08858324247555, -80.55751909244663]}}, {"type": "Feature", "properties": {"norad_id": 32440, "name": "FENGYUN 1C DEB", "group": "fengyun-1c-debris", "lat": -77.40711037631237, "lon": -23.317658559592317, "alt_km": 1275.008011777065, "timestamp": "2025-12-13T16:48:32.996611+00:00", "meta": {"OBJECT_NAME": "FENGYUN 1C DEB", "OBJECT_ID": "1999-025DBC", "EPOCH": "2025-12-12T07:47:51.906912", "MEAN_MOTION": 13.6125644, "ECCENTRICITY": 0.03219473, "INCLINATION": 99.1542, "RA_OF_ASC_NODE": 201.5922, "ARG_OF_PERICENTER": 91.933, "MEAN_ANOMALY": 271.871, "EPHEMERIS_TYPE": 0, "CLASSIFICATION_TYPE": "U", "NORAD_CAT_ID": 32440, "ELEMENT_SET_NO": 999, "REV_AT_EPOCH": 60280, "BSTAR": 0.0043210943, "MEAN_MOTION_DOT": 4.61e-05, "MEAN_MOTION_DDOT": 0}, "tle": {"line1": "1 32440U 99025DBC 25346.32490633  .00004610  00000+0  43211-2 0  9991", "line2": "2 32440  99.1542 201.5922 0321947  91.9330 271.8710 13.61256440602801"}}, "geometry": {"type": "Point", "coordinates": [-23.317658559592317, -77.40711037631237]}}, {"type": "Feature", "properties": {"norad_id": 32447, "name": "FENGYUN 1C DEB", "group": "fengyun-1c-debris", "lat": -80.2761308663157, "lon": 117.21225109172876, "alt_km": 954.0445346982742, "timestamp": "2025-12-13T16:48:32.996621+00:00", "meta": {"OBJECT_NAME": "FENGYUN 1C DEB", "OBJECT_ID": "1999-025DBK", "EPOCH": "2025-12-09T20:22:18.261408", "MEAN_MOTION": 13.96013309, "ECCENTRICITY": 0.00800272, "INCLINATION": 98.9313, "RA_OF_ASC_NODE": 0.0649, "ARG_OF_PERICENTER": 49.1812, "MEAN_ANOMALY": 311.6255, "EPHEMERIS_TYPE": 0, "CLASSIFICATION_TYPE": "U", "NORAD_CAT_ID": 32447, "ELEMENT_SET_NO": 999, "REV_AT_EPOCH": 67838, "BSTAR": 0.00036340481, "MEAN_MOTION_DOT": 4.69e-06, "MEAN_MOTION_DDOT": 0}, "tle": {"line1": "1 32447U 99025DBK 25343.84882247  .00000469  00000+0  36340-3 0  9992", "line2": "2 32447  98.9313   0.0649 0080027  49.1812 311.6255 13.96013309678386"}}, "geometry": {"type": "Point", "coordinates": [117.21225109172876, -80.2761308663157]}}, {"type": "Feature", "properties": {"norad_id": 32451, "name": "FENGYUN 1C DEB", "group": "fengyun-1c-debris", "lat": -76.52536592365871, "lon": 100.30316998386297, "alt_km": 895.8685613303514, "timestamp": "2025-12-13T16:48:32.996631+00:00", "meta": {"OBJECT_NAME": "FENGYUN 1C DEB", "OBJECT_ID": "1999-025DBP", "EPOCH": "2025-12-12T03:11:36.874752", "MEAN_MOTION": 13.86566826, "ECCENTRICITY": 0.01853194, "INCLINATION": 99.9714, "RA_OF_ASC_NODE": 325.8729, "ARG_OF_PERICENTER": 196.5555, "MEAN_ANOMALY": 162.9495, "EPHEMERIS_TYPE": 0, "CLASSIFICATION_TYPE": "U", "NORAD_CAT_ID": 32451, "ELEMENT_SET_NO": 999, "REV_AT_EPOCH": 61756, "BSTAR": 0.0027241507, "MEAN_MOTION_DOT": 3.574e-05, "MEAN_MOTION_DDOT": 0}, "tle": {"line1": "1 32451U 99025DBP 25346.13306568  .00003574  00000+0  27242-2 0  9999", "line2": "2 32451  99.9714 325.8729 0185319 196.5555 162.9495 13.86566826617567"}}, "geometry": {"type": "Point", "coordinates": [100.30316998386297, -76.52536592365871]}}, {"type": "Feature", "properties": {"norad_id": 32453, "name": "FENGYUN 1C DEB", "group": "fengyun-1c-debris", "lat": -49.08880997887496, "lon": 66.44645046143741, "alt_km": 830.0918436692382, "timestamp": "2025-12-13T16:48:32.996641+00:00", "meta": {"OBJECT_NAME": "FENGYUN 1C DEB", "OBJECT_ID": "1999-025DBR", "EPOCH": "2025-12-13T00:18:14.482368", "MEAN_MOTION": 14.02254123, "ECCENTRICITY": 0.00962466, "INCLINATION": 99.3721, "RA_OF_ASC_NODE": 256.7263, "ARG_OF_PERICENTER": 205.2664, "MEAN_ANOMALY": 154.3777, "EPHEMERIS_TYPE": 0, "CLASSIFICATION_TYPE": "U", "NORAD_CAT_ID": 32453, "ELEMENT_SET_NO": 999, "REV_AT_EPOCH": 93432, "BSTAR": 0.00092789099, "MEAN_MOTION_DOT": 1.433e-05, "MEAN_MOTION_DDOT": 0}, "tle": {"line1": "1 32453U 99025DBR 25347.01266762  .00001433  00000+0  92789-3 0  9991", "line2": "2 32453  99.3721 256.7263 0096246 205.2664 154.3777 14.02254123934322"}}, "geometry": {"type": "Point", "coordinates": [66.44645046143741, -49.08880997887496]}}, {"type": "Feature", "properties": {"norad_id": 32455, "name": "FENGYUN 1C DEB", "group": "fengyun-1c-debris", "lat": -76.79711666596086, "lon": -62.29413283439045, "alt_km": 1012.8607728623901, "timestamp": "2025-12-13T16:48:32.996651+00:00", "meta": {"OBJECT_NAME": "FENGYUN 1C DEB", "OBJECT_ID": "1999-025DBT", "EPOCH": "2025-12-12T08:31:29.271360", "MEAN_MOTION": 13.92460137, "ECCENTRICITY": 0.02361492, "INCLINATION": 101.7339, "RA_OF_ASC_NODE": 178.3696, "ARG_OF_PERICENTER": 146.2429, "MEAN_ANOMALY": 215.4014, "EPHEMERIS_TYPE": 0, "CLASSIFICATION_TYPE": "U", "NORAD_CAT_ID": 32455, "ELEMENT_SET_NO": 999, "REV_AT_EPOCH": 64410, "BSTAR": 0.0034691403, "MEAN_MOTION_DOT": 5.553e-05, "MEAN_MOTION_DDOT": 0}, "tle": {"line1": "1 32455U 99025DBT 25346.35519990  .00005553  00000+0  34691-2 0  9997", "line2": "2 32455 101.7339 178.3696 0236149 146.2429 215.4014 13.92460137644106"}}, "geometry": {"type": "Point", "coordinates": [-62.29413283439045, -76.79711666596086]}}, {"type": "Feature", "properties": {"norad_id": 32456, "name": "FENGYUN 1C DEB", "group": "fengyun-1c-debris", "lat": -55.834536603928335, "lon": 149.39468068947826, "alt_km": 1064.2561360498585, "timestamp": "2025-12-13T16:48:32.996661+00:00", "meta": {"OBJECT_NAME": "FENGYUN 1C DEB", "OBJECT_ID": "1999-025DBU", "EPOCH": "2025-12-07T15:29:29.480640", "MEAN_MOTION": 13.3560312, "ECCENTRICITY": 0.03795662, "INCLINATION": 103.6664, "RA_OF_ASC_NODE": 120.3053, "ARG_OF_PERICENTER": 235.7459, "MEAN_ANOMALY": 120.7155, "EPHEMERIS_TYPE": 0, "CLASSIFICATION_TYPE": "U", "NORAD_CAT_ID": 32456, "ELEMENT_SET_NO": 999, "REV_AT_EPOCH": 60548, "BSTAR": 0.0033121081, "MEAN_MOTION_DOT": 2.469e-05, "MEAN_MOTION_DDOT": 0}, "tle": {"line1": "1 32456U 99025DBU 25341.64548010  .00002469  00000+0  33121-2 0  9990", "line2": "2 32456 103.6664 120.3053 0379566 235.7459 120.7155 13.35603120605481"}}, "geometry": {"type": "Point", "coordinates": [149.39468068947826, -55.834536603928335]}}, {"type": "Feature", "properties": {"norad_id": 32458, "name": "FENGYUN 1C DEB", "group": "fengyun-1c-debris", "lat": 42.92462480306933, "lon": -0.8472109860334753, "alt_km": 658.1132288229028, "timestamp": "2025-12-13T16:48:32.996671+00:00", "meta": {"OBJECT_NAME": "FENGYUN 1C DEB", "OBJECT_ID": "1999-025DBW", "EPOCH": "2025-12-08T06:52:15.068064", "MEAN_MOTION": 14.62160146, "ECCENTRICITY": 0.00405564, "INCLINATION": 99.046, "RA_OF_ASC_NODE": 1.7508, "ARG_OF_PERICENTER": 27.6994, "MEAN_ANOMALY": 332.6353, "EPHEMERIS_TYPE": 0, "CLASSIFICATION_TYPE": "U", "NORAD_CAT_ID": 32458, "ELEMENT_SET_NO": 999, "REV_AT_EPOCH": 67724, "BSTAR": 0.0019224362, "MEAN_MOTION_DOT": 9.742e-05, "MEAN_MOTION_DDOT": 0}, "tle": {"line1": "1 32458U 99025DBW 25342.28628551  .00009742  00000+0  19224-2 0  9991", "line2": "2 32458  99.0460   1.7508 0040556  27.6994 332.6353 14.62160146677242"}}, "geometry": {"type": "Point", "coordinates": [-0.8472109860334753, 42.92462480306933]}}, {"type": "Feature", "properties": {"norad_id": 32459, "name": "FENGYUN 1C DEB", "group": "fengyun-1c-debris", "lat": 42.68913381537635, "lon": -5.835053602615691, "alt_km": 860.9513743906437, "timestamp": "2025-12-13T16:48:32.996681+00:00", "meta": {"OBJECT_NAME": "FENGYUN 1C DEB", "OBJECT_ID": "1999-025DBX", "EPOCH": "2025-12-12T18:57:49.580352", "MEAN_MOTION": 14.42808602, "ECCENTRICITY": 0.02132441, "INCLINATION": 98.3033, "RA_OF_ASC_NODE": 1.0194, "ARG_OF_PERICENTER": 186.1919, "MEAN_ANOMALY": 173.6629, "EPHEMERIS_TYPE": 0, "CLASSIFICATION_TYPE": "U", "NORAD_CAT_ID": 32459, "ELEMENT_SET_NO": 999, "REV_AT_EPOCH": 94551, "BSTAR": 0.00083717666, "MEAN_MOTION_DOT": 3.625e-05, "MEAN_MOTION_DDOT": 0}, "tle": {"line1": "1 32459U 99025DBX 25346.79015718  .00003625  00000+0  83718-3 0  9991", "line2": "2 32459  98.3033   1.0194 0213244 186.1919 173.6629 14.42808602945510"}}, "geometry": {"type": "Point", "coordinates": [-5.835053602615691, 42.68913381537635]}}]}